[
  {
    "OBJECT_NAME": "STARLINK-5512",
    "OBJECT_ID": "23094AQ",
    "EPOCH": "2025-11-11T05:29:02.382720",
    "MEAN_MOTION": 15.02533288,
    "ECCENTRICITY": 0.0001224,
    "INCLINATION": 43.0059,
    "RA_OF_ASC_NODE": 300.742,
    "ARG_OF_PERICENTER": 270.2098,
    "MEAN_ANOMALY": 89.8604,
    "EPHEMERIS_TYPE": 0,
    "CLASSIFICATION_TYPE": "U",
    "NORAD_CAT_ID": 57256,
    "ELEMENT_SET_NO": 999,
    "REV_AT_EPOCH": 12945,
    "BSTAR": 0.00010711,
    "MEAN_MOTION_DOT": 1.243e-05,
    "MEAN_MOTION_DDOT": 0.0,
    "TLE_LINE1": "1 57256U 23094AQ  25315.22849980  .00001243  00000+0  10711-3 0  9993",
    "TLE_LINE2": "2 57256  43.0059 300.7420 0001224 270.2098  89.8604 15.02533288129454",
    "COMMENT": "Grouped by shell and plane from TLE"
  },
  {
    "OBJECT_NAME": "STARLINK-5503",
    "OBJECT_ID": "23094AR",
    "EPOCH": "2025-11-11T01:20:12.338304",
    "MEAN_MOTION": 15.02539567,
    "ECCENTRICITY": 0.0001361,
    "INCLINATION": 43.0042,
    "RA_OF_ASC_NODE": 302.0046,
    "ARG_OF_PERICENTER": 269.9281,
    "MEAN_ANOMALY": 90.1406,
    "EPHEMERIS_TYPE": 0,
    "CLASSIFICATION_TYPE": "U",
    "NORAD_CAT_ID": 57257,
    "ELEMENT_SET_NO": 999,
    "REV_AT_EPOCH": 13008,
    "BSTAR": 0.0,
    "MEAN_MOTION_DOT": -4.16e-06,
    "MEAN_MOTION_DDOT": 0.0,
    "TLE_LINE1": "1 57257U 23094AR  25315.05569836 -.00000416  00000+0 -15750-4 0  9996",
    "TLE_LINE2": "2 57257  43.0042 302.0046 0001361 269.9281  90.1406 15.02539567130089",
    "COMMENT": "Grouped by shell and plane from TLE"
  },
  {
    "OBJECT_NAME": "STARLINK-5476",
    "OBJECT_ID": "23094AS",
    "EPOCH": "2025-11-11T05:49:48.624096",
    "MEAN_MOTION": 15.02536399,
    "ECCENTRICITY": 0.0001397,
    "INCLINATION": 43.0052,
    "RA_OF_ASC_NODE": 300.8294,
    "ARG_OF_PERICENTER": 272.6613,
    "MEAN_ANOMALY": 87.4069,
    "EPHEMERIS_TYPE": 0,
    "CLASSIFICATION_TYPE": "U",
    "NORAD_CAT_ID": 57258,
    "ELEMENT_SET_NO": 999,
    "REV_AT_EPOCH": 12945,
    "BSTAR": 8.8849e-05,
    "MEAN_MOTION_DOT": 9.97e-06,
    "MEAN_MOTION_DDOT": 0.0,
    "TLE_LINE1": "1 57258U 23094AS  25315.24292389  .00000997  00000+0  88849-4 0  9995",
    "TLE_LINE2": "2 57258  43.0052 300.8294 0001397 272.6613  87.4069 15.02536399129454",
    "COMMENT": "Grouped by shell and plane from TLE"
  },
  {
    "OBJECT_NAME": "STARLINK-5026",
    "OBJECT_ID": "23094AU",
    "EPOCH": "2025-11-11T05:40:12.571968",
    "MEAN_MOTION": 15.02557006,
    "ECCENTRICITY": 0.000123,
    "INCLINATION": 43.0046,
    "RA_OF_ASC_NODE": 300.7782,
    "ARG_OF_PERICENTER": 265.8758,
    "MEAN_ANOMALY": 94.1944,
    "EPHEMERIS_TYPE": 0,
    "CLASSIFICATION_TYPE": "U",
    "NORAD_CAT_ID": 57260,
    "ELEMENT_SET_NO": 999,
    "REV_AT_EPOCH": 13009,
    "BSTAR": 0.0,
    "MEAN_MOTION_DOT": -4.007e-05,
    "MEAN_MOTION_DDOT": 0.0,
    "TLE_LINE1": "1 57260U 23094AU  25315.23625662 -.00004007  00000+0 -28157-3 0  9994",
    "TLE_LINE2": "2 57260  43.0046 300.7782 0001230 265.8758  94.1944 15.02557006130098",
    "COMMENT": "Grouped by shell and plane from TLE"
  },
  {
    "OBJECT_NAME": "STARLINK-5504",
    "OBJECT_ID": "23094AW",
    "EPOCH": "2025-11-11T05:53:00.439008",
    "MEAN_MOTION": 15.02538928,
    "ECCENTRICITY": 0.0001151,
    "INCLINATION": 43.0046,
    "RA_OF_ASC_NODE": 300.8475,
    "ARG_OF_PERICENTER": 273.5694,
    "MEAN_ANOMALY": 86.5017,
    "EPHEMERIS_TYPE": 0,
    "CLASSIFICATION_TYPE": "U",
    "NORAD_CAT_ID": 57262,
    "ELEMENT_SET_NO": 999,
    "REV_AT_EPOCH": 12945,
    "BSTAR": 0.0,
    "MEAN_MOTION_DOT": -3.39e-06,
    "MEAN_MOTION_DDOT": 0.0,
    "TLE_LINE1": "1 57262U 23094AW  25315.24514397 -.00000339  00000+0 -10016-4 0  9999",
    "TLE_LINE2": "2 57262  43.0046 300.8475 0001151 273.5694  86.5017 15.02538928129453",
    "COMMENT": "Grouped by shell and plane from TLE"
  },
  {
    "OBJECT_NAME": "STARLINK-5858",
    "OBJECT_ID": "23094AY",
    "EPOCH": "2025-11-11T05:33:49.408704",
    "MEAN_MOTION": 15.02537988,
    "ECCENTRICITY": 0.0001227,
    "INCLINATION": 43.0043,
    "RA_OF_ASC_NODE": 300.7448,
    "ARG_OF_PERICENTER": 272.1113,
    "MEAN_ANOMALY": 87.9589,
    "EPHEMERIS_TYPE": 0,
    "CLASSIFICATION_TYPE": "U",
    "NORAD_CAT_ID": 57264,
    "ELEMENT_SET_NO": 999,
    "REV_AT_EPOCH": 12945,
    "BSTAR": 0.00010143000000000001,
    "MEAN_MOTION_DOT": 1.167e-05,
    "MEAN_MOTION_DDOT": 0.0,
    "TLE_LINE1": "1 57264U 23094AY  25315.23182186  .00001167  00000+0  10143-3 0  9995",
    "TLE_LINE2": "2 57264  43.0043 300.7448 0001227 272.1113  87.9589 15.02537988129450",
    "COMMENT": "Grouped by shell and plane from TLE"
  },
  {
    "OBJECT_NAME": "STARLINK-5890",
    "OBJECT_ID": "23094AZ",
    "EPOCH": "2025-11-11T05:30:39.313152",
    "MEAN_MOTION": 15.02526393,
    "ECCENTRICITY": 0.0001167,
    "INCLINATION": 43.0041,
    "RA_OF_ASC_NODE": 300.7313,
    "ARG_OF_PERICENTER": 282.1181,
    "MEAN_ANOMALY": 77.953,
    "EPHEMERIS_TYPE": 0,
    "CLASSIFICATION_TYPE": "U",
    "NORAD_CAT_ID": 57265,
    "ELEMENT_SET_NO": 999,
    "REV_AT_EPOCH": 12945,
    "BSTAR": 0.00015561,
    "MEAN_MOTION_DOT": 1.898e-05,
    "MEAN_MOTION_DDOT": 0.0,
    "TLE_LINE1": "1 57265U 23094AZ  25315.22962168  .00001898  00000+0  15561-3 0  9991",
    "TLE_LINE2": "2 57265  43.0041 300.7313 0001167 282.1181  77.9530 15.02526393129452",
    "COMMENT": "Grouped by shell and plane from TLE"
  },
  {
    "OBJECT_NAME": "STARLINK-30154",
    "OBJECT_ID": "23113A",
    "EPOCH": "2025-11-11T06:39:21.599712",
    "MEAN_MOTION": 15.02516856,
    "ECCENTRICITY": 1.66e-05,
    "INCLINATION": 43.002,
    "RA_OF_ASC_NODE": 301.1106,
    "ARG_OF_PERICENTER": 208.9194,
    "MEAN_ANOMALY": 151.164,
    "EPHEMERIS_TYPE": 0,
    "CLASSIFICATION_TYPE": "U",
    "NORAD_CAT_ID": 57495,
    "ELEMENT_SET_NO": 999,
    "REV_AT_EPOCH": 12568,
    "BSTAR": 0.00011824,
    "MEAN_MOTION_DOT": 1.393e-05,
    "MEAN_MOTION_DDOT": 0.0,
    "TLE_LINE1": "1 57495U 23113A   25315.27733333  .00001393  00000+0  11824-3 0  9991",
    "TLE_LINE2": "2 57495  43.0020 301.1106 0000166 208.9194 151.1640 15.02516856125688",
    "COMMENT": "Grouped by shell and plane from TLE"
  },
  {
    "OBJECT_NAME": "STARLINK-30145",
    "OBJECT_ID": "23113B",
    "EPOCH": "2025-11-10T23:52:28.210944",
    "MEAN_MOTION": 15.02538706,
    "ECCENTRICITY": 0.0001352,
    "INCLINATION": 43.005,
    "RA_OF_ASC_NODE": 302.4437,
    "ARG_OF_PERICENTER": 271.6618,
    "MEAN_ANOMALY": 88.4069,
    "EPHEMERIS_TYPE": 0,
    "CLASSIFICATION_TYPE": "U",
    "NORAD_CAT_ID": 57496,
    "ELEMENT_SET_NO": 999,
    "REV_AT_EPOCH": 12569,
    "BSTAR": 0.00011240000000000001,
    "MEAN_MOTION_DOT": 1.315e-05,
    "MEAN_MOTION_DDOT": 0.0,
    "TLE_LINE1": "1 57496U 23113B   25314.99477096  .00001315  00000+0  11240-3 0  9997",
    "TLE_LINE2": "2 57496  43.0050 302.4437 0001352 271.6618  88.4069 15.02538706125695",
    "COMMENT": "Grouped by shell and plane from TLE"
  },
  {
    "OBJECT_NAME": "STARLINK-30226",
    "OBJECT_ID": "23113C",
    "EPOCH": "2025-11-11T06:10:36.107040",
    "MEAN_MOTION": 15.02534906,
    "ECCENTRICITY": 6.98e-05,
    "INCLINATION": 43.0048,
    "RA_OF_ASC_NODE": 300.9841,
    "ARG_OF_PERICENTER": 267.3453,
    "MEAN_ANOMALY": 92.731,
    "EPHEMERIS_TYPE": 0,
    "CLASSIFICATION_TYPE": "U",
    "NORAD_CAT_ID": 57497,
    "ELEMENT_SET_NO": 999,
    "REV_AT_EPOCH": 12574,
    "BSTAR": 0.0,
    "MEAN_MOTION_DOT": -1.839e-05,
    "MEAN_MOTION_DDOT": 0.0,
    "TLE_LINE1": "1 57497U 23113C   25315.25736235 -.00001839  00000+0 -12114-3 0  9995",
    "TLE_LINE2": "2 57497  43.0048 300.9841 0000698 267.3453  92.7310 15.02534906125747",
    "COMMENT": "Grouped by shell and plane from TLE"
  },
  {
    "OBJECT_NAME": "STARLINK-30203",
    "OBJECT_ID": "23113D",
    "EPOCH": "2025-11-11T05:56:12.402528",
    "MEAN_MOTION": 15.02536941,
    "ECCENTRICITY": 0.0001304,
    "INCLINATION": 43.004,
    "RA_OF_ASC_NODE": 300.9033,
    "ARG_OF_PERICENTER": 273.8018,
    "MEAN_ANOMALY": 86.2675,
    "EPHEMERIS_TYPE": 0,
    "CLASSIFICATION_TYPE": "U",
    "NORAD_CAT_ID": 57498,
    "ELEMENT_SET_NO": 999,
    "REV_AT_EPOCH": 12586,
    "BSTAR": 5.1886000000000004e-05,
    "MEAN_MOTION_DOT": 4.97e-06,
    "MEAN_MOTION_DDOT": 0.0,
    "TLE_LINE1": "1 57498U 23113D   25315.24736577  .00000497  00000+0  51886-4 0  9991",
    "TLE_LINE2": "2 57498  43.0040 300.9033 0001304 273.8018  86.2675 15.02536941125863",
    "COMMENT": "Grouped by shell and plane from TLE"
  },
  {
    "OBJECT_NAME": "STARLINK-30164",
    "OBJECT_ID": "23113F",
    "EPOCH": "2025-11-11T07:17:33.019296",
    "MEAN_MOTION": 15.02535527,
    "ECCENTRICITY": 0.0001078,
    "INCLINATION": 43.0036,
    "RA_OF_ASC_NODE": 300.4595,
    "ARG_OF_PERICENTER": 267.9756,
    "MEAN_ANOMALY": 92.0963,
    "EPHEMERIS_TYPE": 0,
    "CLASSIFICATION_TYPE": "U",
    "NORAD_CAT_ID": 57500,
    "ELEMENT_SET_NO": 999,
    "REV_AT_EPOCH": 12585,
    "BSTAR": 0.00011734999999999999,
    "MEAN_MOTION_DOT": 1.382e-05,
    "MEAN_MOTION_DDOT": 0.0,
    "TLE_LINE1": "1 57500U 23113F   25315.30385439  .00001382  00000+0  11735-3 0  9991",
    "TLE_LINE2": "2 57500  43.0036 300.4595 0001078 267.9756  92.0963 15.02535527125854",
    "COMMENT": "Grouped by shell and plane from TLE"
  },
  {
    "OBJECT_NAME": "STARLINK-30072",
    "OBJECT_ID": "23113G",
    "EPOCH": "2025-11-11T05:32:13.690464",
    "MEAN_MOTION": 15.02539294,
    "ECCENTRICITY": 0.0001304,
    "INCLINATION": 43.0043,
    "RA_OF_ASC_NODE": 300.7656,
    "ARG_OF_PERICENTER": 276.7254,
    "MEAN_ANOMALY": 83.344,
    "EPHEMERIS_TYPE": 0,
    "CLASSIFICATION_TYPE": "U",
    "NORAD_CAT_ID": 57501,
    "ELEMENT_SET_NO": 999,
    "REV_AT_EPOCH": 12573,
    "BSTAR": 0.00012467,
    "MEAN_MOTION_DOT": 1.481e-05,
    "MEAN_MOTION_DDOT": 0.0,
    "TLE_LINE1": "1 57501U 23113G   25315.23071401  .00001481  00000+0  12467-3 0  9998",
    "TLE_LINE2": "2 57501  43.0043 300.7656 0001304 276.7254  83.3440 15.02539294125732",
    "COMMENT": "Grouped by shell and plane from TLE"
  }
]